IRIDIUM 159             
1 43578U 18061K   23261.84192923  .00000340  00000+0  11426-3 0  9998
2 43578  86.3937 115.6564 0002146  86.8536 273.2906 14.34219037269710
IRIDIUM 180             
1 43922U 19002A   23261.91118262  .00000397  00000+0  13473-3 0  9995
2 43922  86.3954  52.4554 0001931  96.6751 263.4664 14.34212918245333
IRIDIUM 176             
1 43923U 19002B   23262.45093413  .00001749  00000+0  27342-3 0  9998
2 43923  86.6084  52.2640 0002233  89.7403 270.4070 14.72253844251867
IRIDIUM 168             
1 43924U 19002C   23261.83508010  .00000464  00000+0  15859-3 0  9997
2 43924  86.3957  52.5363 0002059  93.8027 266.3404 14.34222762245303
IRIDIUM 173             
1 43925U 19002D   23262.17124269  .00000497  00000+0  17034-3 0  9999
2 43925  86.3954  52.3256 0002106  94.2253 265.9184 14.34221611245345
IRIDIUM 169             
1 43926U 19002E   23262.44045065  .00000187  00000+0  54442-4 0  9997
2 43926  86.4168  83.8477 0004977  61.6151 298.5549 14.38604896246208
IRIDIUM 172             
1 43927U 19002F   23261.88581782  .00000511  00000+0  17545-3 0  9999
2 43927  86.3952  52.4498 0002041  95.2807 264.8621 14.34216994245306
IRIDIUM 175             
1 43928U 19002G   23262.10487742  .00001849  00000+0  28932-3 0  9994
2 43928  86.1522  40.9304 0002199  91.8683 268.2785 14.72237452251809
